ONEWEB-0403             
1 50483U 21132Q   25333.63830872 -.00000035  00000+0 -12125-3 0  9995
2 50483  87.9194  15.0858 0001715  98.2918 261.8409 13.18683536195298
ONEWEB-0404             
1 50484U 21132R   25333.73913703 -.00000544  00000+0 -15720-2 0  9990
2 50484  87.8865  60.7903 0001407 114.3128 245.8147 13.11417999189556
ONEWEB-0405             
1 50485U 21132S   25333.65315179  .00000006  00000+0 -17635-4 0  9996
2 50485  87.9196  15.0671 0001978 104.2584 255.8768 13.18684042195691
ONEWEB-0406             
1 50486U 21132T   25333.64326228  .00000012  00000+0 -28712-5 0  9999
2 50486  87.9195  15.0936 0001274  96.2109 263.9168 13.18684067195328
ONEWEB-0407             
1 50487U 21132U   25333.63665897 -.00000014  00000+0 -66989-4 0  9997
2 50487  87.9196  15.0787 0001971  95.5015 264.6342 13.18684077195262
ONEWEB-0409             
1 50488U 21132V   25333.73744499 -.00000544  00000+0 -15702-2 0  9998
2 50488  87.8880  60.7577 0001272 107.1603 252.9664 13.11418408189449
ONEWEB-0412             
1 50489U 21132W   25333.62511763  .00000044  00000+0  79056-4 0  9990
2 50489  87.9197  15.0938 0002092 103.3202 256.8163 13.18684566195351
ONEWEB-0413             
1 50490U 21132X   25333.63007352  .00000003  00000+0 -24486-4 0  9990
2 50490  87.9188  15.1068 0002137  99.4226 260.7148 13.18686551195295
